DELTA 2 R/B(1)          
1 20453U 90008B   26062.79095829  .00089154  00000+0  10724-2 0  9998
2 20453  35.6039 213.5409 0086769 204.1361 155.5295 15.55064062925214
COSMOS 2058             
1 20465U 90010A   26063.02026070  .00005986  00000+0  35395-3 0  9996
2 20465  82.4666  53.0131 0009785   2.1639 357.9632 15.11260178941386
SL-14 R/B               
1 20466U 90010B   26063.08882359  .00000557  00000+0  64601-4 0  9995
2 20466  82.4992 272.6512 0018892 321.9134  38.0744 14.83563470927656
SL-14 R/B               
1 20511U 90018B   26062.89874168  .00000730  00000+0  88553-4 0  9996
2 20511  82.5192 228.5027 0017591 109.6435 250.6679 14.82137586921726
HST                     
1 20580U 90037B   26063.13533951  .00010319  00000+0  34382-3 0  9997
2 20580  28.4703  77.8870 0001725  70.3509 289.7272 15.29378725772469
SL-16 R/B               
1 20625U 90046B   26063.11254067 -.00000180  00000+0 -68151-4 0  9992
2 20625  71.0000 309.6278 0016154 307.0897  52.8748 14.15014486847604
COSMOS 2084             
1 20663U 90055A   26063.14307556  .00004266  00000+0  30711-3 0  9996
2 20663  62.7927 354.4944 0017963 188.7054 171.3737 15.05610742935483
SL-6 R/B(2)             
1 20666U 90055D   26062.98512900  .00002872  00000+0  22256-3 0  9997
2 20666  62.7818 273.2508 0023883 345.6258  14.4159 15.03562591937334
SL-8 R/B                
1 20775U 90078B   26062.99793981  .00020766  00000+0  61063-3 0  9995
2 20775  82.8989 256.4302 0363616  33.1204 329.2215 14.88836115808451
SL-8 R/B                
1 21088U 91006B   26062.82504993  .00000065  00000+0  49724-4 0  9991
2 21088  82.9464 174.4054 0023378  54.1372  64.7140 13.77493424763264
OKEAN-3                 
1 21397U 91039A   26063.15979696  .00004607  00000+0  32427-3 0  9990
2 21397  82.5199 342.1995 0014281 358.4141   1.7037 15.04757132864206
COSMOS 2151             
1 21422U 91042A   26063.14689112  .00002981  00000+0  23676-3 0  9992
2 21422  82.4928  89.0243 0014118  80.0933 280.1884 15.00079549862366
